{
  "type": "FeatureCollection",
  "features": [
    {
      "type": "Feature",
      "properties": {
        "norad_id": 55973,
        "name": "TIANMU-1 03",
        "group": "weather",
        "lat": -11.54126998258874,
        "lon": -27.5607327093194,
        "alt_km": 449.77573510165075,
        "timestamp": "2025-12-17T04:57:44.047844+00:00",
        "meta_object_name": "TIANMU-1 03",
        "meta_object_id": "2023-039A",
        "meta_epoch": "2025-12-16T23:27:31.794912",
        "meta_mean_motion": 15.41048185,
        "meta_eccentricity": 0.00042018,
        "meta_inclination": 97.5101,
        "meta_ra_of_asc_node": 153.7473,
        "meta_arg_of_pericenter": 49.1814,
        "meta_mean_anomaly": 310.9796,
        "meta_ephemeris_type": 0,
        "meta_classification_type": "U",
        "meta_norad_cat_id": 55973,
        "meta_element_set_no": 999,
        "meta_rev_at_epoch": 15271,
        "meta_bstar": 0.00029890814,
        "meta_mean_motion_dot": 0.00012265,
        "meta_mean_motion_ddot": 0,
        "tle_line1": "1 55973U 23039A   25350.97745133  .00012265  00000+0  29891-3 0  9997",
        "tle_line2": "2 55973  97.5101 153.7473 0004201  49.1814 310.9796 15.41048185152716"
      },
      "geometry": {
        "type": "Point",
        "coordinates": [
          -27.5607327093194,
          -11.54126998258874
        ]
      }
    },
    {
      "type": "Feature",
      "properties": {
        "norad_id": 55974,
        "name": "TIANMU-1 04",
        "group": "weather",
        "lat": -48.69199122325226,
        "lon": 161.79847796201116,
        "alt_km": 449.01969116973487,
        "timestamp": "2025-12-17T04:57:44.047898+00:00",
        "meta_object_name": "TIANMU-1 04",
        "meta_object_id": "2023-039B",
        "meta_epoch": "2025-12-17T00:30:04.921920",
        "meta_mean_motion": 15.41388813,
        "meta_eccentricity": 0.0004869,
        "meta_inclination": 97.5033,
        "meta_ra_of_asc_node": 152.9813,
        "meta_arg_of_pericenter": 43.3559,
        "meta_mean_anomaly": 316.807,
        "meta_ephemeris_type": 0,
        "meta_classification_type": "U",
        "meta_norad_cat_id": 55974,
        "meta_element_set_no": 999,
        "meta_rev_at_epoch": 15272,
        "meta_bstar": 0.00031983575,
        "meta_mean_motion_dot": 0.00013282,
        "meta_mean_motion_ddot": 0,
        "tle_line1": "1 55974U 23039B   25351.02089030  .00013282  00000+0  31984-3 0  9998",
        "tle_line2": "2 55974  97.5033 152.9813 0004869  43.3559 316.8070 15.41388813152728"
      },
      "geometry": {
        "type": "Point",
        "coordinates": [
          161.79847796201116,
          -48.69199122325226
        ]
      }
    },
    {
      "type": "Feature",
      "properties": {
        "norad_id": 55975,
        "name": "TIANMU-1 05",
        "group": "weather",
        "lat": -23.283417747693175,
        "lon": 156.9183997135261,
        "alt_km": 448.658411089732,
        "timestamp": "2025-12-17T04:57:44.047909+00:00",
        "meta_object_name": "TIANMU-1 05",
        "meta_object_id": "2023-039C",
        "meta_epoch": "2025-12-17T00:23:19.184928",
        "meta_mean_motion": 15.41006729,
        "meta_eccentricity": 0.00042516,
        "meta_inclination": 97.5079,
        "meta_ra_of_asc_node": 153.4691,
        "meta_arg_of_pericenter": 66.6696,
        "meta_mean_anomaly": 293.4997,
        "meta_ephemeris_type": 0,
        "meta_classification_type": "U",
        "meta_norad_cat_id": 55975,
        "meta_element_set_no": 999,
        "meta_rev_at_epoch": 15270,
        "meta_bstar": 0.00031517875,
        "meta_mean_motion_dot": 0.00012921,
        "meta_mean_motion_ddot": 0,
        "tle_line1": "1 55975U 23039C   25351.01619427  .00012921  00000+0  31518-3 0  9999",
        "tle_line2": "2 55975  97.5079 153.4691 0004251  66.6696 293.4997 15.41006729152703"
      },
      "geometry": {
        "type": "Point",
        "coordinates": [
          156.9183997135261,
          -23.283417747693175
        ]
      }
    },
    {
      "type": "Feature",
      "properties": {
        "norad_id": 55976,
        "name": "TIANMU-1 06",
        "group": "weather",
        "lat": -59.59147113054507,
        "lon": 167.1218016298747,
        "alt_km": 450.6054952405648,
        "timestamp": "2025-12-17T04:57:44.047918+00:00",
        "meta_object_name": "TIANMU-1 06",
        "meta_object_id": "2023-039D",
        "meta_epoch": "2025-12-17T00:33:00.397728",
        "meta_mean_motion": 15.41440812,
        "meta_eccentricity": 0.00045424,
        "meta_inclination": 97.509,
        "meta_ra_of_asc_node": 153.9445,
        "meta_arg_of_pericenter": 61.1935,
        "meta_mean_anomaly": 298.9767,
        "meta_ephemeris_type": 0,
        "meta_classification_type": "U",
        "meta_norad_cat_id": 55976,
        "meta_element_set_no": 999,
        "meta_rev_at_epoch": 15272,
        "meta_bstar": 0.0003206903,
        "meta_mean_motion_dot": 0.00013341,
        "meta_mean_motion_ddot": 0,
        "tle_line1": "1 55976U 23039D   25351.02292127  .00013341  00000+0  32069-3 0  9994",
        "tle_line2": "2 55976  97.5090 153.9445 0004542  61.1935 298.9767 15.41440812152720"
      },
      "geometry": {
        "type": "Point",
        "coordinates": [
          167.1218016298747,
          -59.59147113054507
        ]
      }
    },
    {
      "type": "Feature",
      "properties": {
        "norad_id": 56232,
        "name": "FENGYUN 3G",
        "group": "weather",
        "lat": -47.25835397646352,
        "lon": 89.75113969811113,
        "alt_km": 409.0534315318764,
        "timestamp": "2025-12-17T04:57:44.047942+00:00",
        "meta_object_name": "FENGYUN 3G",
        "meta_object_id": "2023-055A",
        "meta_epoch": "2025-12-16T23:14:46.987296",
        "meta_mean_motion": 15.53899579,
        "meta_eccentricity": 0.0009334,
        "meta_inclination": 49.9926,
        "meta_ra_of_asc_node": 205.6291,
        "meta_arg_of_pericenter": 167.6048,
        "meta_mean_anomaly": 192.5151,
        "meta_ephemeris_type": 0,
        "meta_classification_type": "U",
        "meta_norad_cat_id": 56232,
        "meta_element_set_no": 999,
        "meta_rev_at_epoch": 15168,
        "meta_bstar": 0.00038747736,
        "meta_mean_motion_dot": 0.0002512,
        "meta_mean_motion_ddot": 0,
        "tle_line1": "1 56232U 23055A   25350.96859939  .00025120  00000+0  38748-3 0  9998",
        "tle_line2": "2 56232  49.9926 205.6291 0009334 167.6048 192.5151 15.53899579151681"
      },
      "geometry": {
        "type": "Point",
        "coordinates": [
          89.75113969811113,
          -47.25835397646352
        ]
      }
    },
    {
      "type": "Feature",
      "properties": {
        "norad_id": 57166,
        "name": "METEOR-M2 3",
        "group": "weather",
        "lat": 80.26775905353658,
        "lon": -72.92654759117758,
        "alt_km": 804.743317673524,
        "timestamp": "2025-12-17T04:57:44.047952+00:00",
        "meta_object_name": "METEOR-M2 3",
        "meta_object_id": "2023-091A",
        "meta_epoch": "2025-12-16T23:27:41.182272",
        "meta_mean_motion": 14.24026559,
        "meta_eccentricity": 0.00036612,
        "meta_inclination": 98.6375,
        "meta_ra_of_asc_node": 44.4428,
        "meta_arg_of_pericenter": 356.4307,
        "meta_mean_anomaly": 3.6846,
        "meta_ephemeris_type": 0,
        "meta_classification_type": "U",
        "meta_norad_cat_id": 57166,
        "meta_element_set_no": 999,
        "meta_rev_at_epoch": 12858,
        "meta_bstar": 2.1417615e-05,
        "meta_mean_motion_dot": 6e-08,
        "meta_mean_motion_ddot": 0,
        "tle_line1": "1 57166U 23091A   25350.97755998  .00000006  00000+0  21418-4 0  9999",
        "tle_line2": "2 57166  98.6375  44.4428 0003661 356.4307   3.6846 14.24026559128584"
      },
      "geometry": {
        "type": "Point",
        "coordinates": [
          -72.92654759117758,
          80.26775905353658
        ]
      }
    },
    {
      "type": "Feature",
      "properties": {
        "norad_id": 57399,
        "name": "TIANMU-1 07",
        "group": "weather",
        "lat": 27.231970139698188,
        "lon": -135.2651760210199,
        "alt_km": 479.90084275858953,
        "timestamp": "2025-12-17T04:57:44.047962+00:00",
        "meta_object_name": "TIANMU-1 07",
        "meta_object_id": "2023-101A",
        "meta_epoch": "2025-12-16T23:34:59.676096",
        "meta_mean_motion": 15.28133222,
        "meta_eccentricity": 0.00054501,
        "meta_inclination": 97.2878,
        "meta_ra_of_asc_node": 40.7393,
        "meta_arg_of_pericenter": 70.7921,
        "meta_mean_anomaly": 289.3908,
        "meta_ephemeris_type": 0,
        "meta_classification_type": "U",
        "meta_norad_cat_id": 57399,
        "meta_element_set_no": 999,
        "meta_rev_at_epoch": 13380,
        "meta_bstar": 0.00021445216,
        "meta_mean_motion_dot": 5.811e-05,
        "meta_mean_motion_ddot": 0,
        "tle_line1": "1 57399U 23101A   25350.98263514  .00005811  00000+0  21445-3 0  9996",
        "tle_line2": "2 57399  97.2878  40.7393 0005450  70.7921 289.3908 15.28133222133805"
      },
      "geometry": {
        "type": "Point",
        "coordinates": [
          -135.2651760210199,
          27.231970139698188
        ]
      }
    }
  ]
}